{"type": "FeatureCollection", "features": [ {"type": "Feature", "properties": {"norad_id": 31073, "name": "FENGYUN 1C DEB", "group": "fengyun-1c-debris", "lat": -46.73513533293316, "lon": -4.498951385459545, "alt_km": 814.7938202574342, "timestamp": "2025-12-02T06:27:53.293806+00:00", "meta": {"OBJECT_NAME": "FENGYUN 1C DEB", "OBJECT_ID": "1999-025BFT", "EPOCH": "2025-12-01T12:32:28.380480", "MEAN_MOTION": 14.24695175, "ECCENTRICITY": 0.0045966, "INCLINATION": 99.221, "RA_OF_ASC_NODE": 184.656, "ARG_OF_PERICENTER": 317.3507, "MEAN_ANOMALY": 42.4106, "EPHEMERIS_TYPE": 0, "CLASSIFICATION_TYPE": "U", "NORAD_CAT_ID": 31073, "ELEMENT_SET_NO": 999, "REV_AT_EPOCH": 96923, "BSTAR": 0.0012263246, "MEAN_MOTION_DOT": 2.837e-05, "MEAN_MOTION_DDOT": 0}, "tle": {"line1": "1 31073U 99025BFT 25335.52255070  .00002837  00000+0  12263-2 0  9998", "line2": "2 31073  99.2210 184.6560 0045966 317.3507  42.4106 14.24695175969235"}}, "geometry": {"type": "Point", "coordinates": [-4.498951385459545, -46.73513533293316]}}, {"type": "Feature", "properties": {"norad_id": 31074, "name": "FENGYUN 1C DEB", "group": "fengyun-1c-debris", "lat": -15.770807017843726, "lon": 68.68215683545728, "alt_km": 860.2101100548152, "timestamp": "2025-12-02T06:27:53.293816+00:00", "meta": {"OBJECT_NAME": "FENGYUN 1C DEB", "OBJECT_ID": "1999-025BFU", "EPOCH": "2025-11-27T04:57:35.433504", "MEAN_MOTION": 14.14011677, "ECCENTRICITY": 0.00904002, "INCLINATION": 98.9571, "RA_OF_ASC_NODE": 246.162, "ARG_OF_PERICENTER": 309.5109, "MEAN_ANOMALY": 49.8096, "EPHEMERIS_TYPE": 0, "CLASSIFICATION_TYPE": "U", "NORAD_CAT_ID": 31074, "ELEMENT_SET_NO": 999, "REV_AT_EPOCH": 95360, "BSTAR": 0.002622613, "MEAN_MOTION_DOT": 5.14e-05, "MEAN_MOTION_DDOT": 0}, "tle": {"line1": "1 31074U 99025BFU 25331.20666011  .00005140  00000+0  26226-2 0  9995", "line2": "2 31074  98.9571 246.1620 0090400 309.5109  49.8096 14.14011677953608"}}, "geometry": {"type": "Point", "coordinates": [68.68215683545728, -15.770807017843726]}}, {"type": "Feature", "properties": {"norad_id": 31078, "name": "FENGYUN 1C DEB", "group": "fengyun-1c-debris", "lat": -51.664093713981465, "lon": -154.73978807812074, "alt_km": 774.9354369984394, "timestamp": "2025-12-02T06:27:53.293826+00:00", "meta": {"OBJECT_NAME": "FENGYUN 1C DEB", "OBJECT_ID": "1999-025BFY", "EPOCH": "2025-11-30T23:34:28.078752", "MEAN_MOTION": 14.22024043, "ECCENTRICITY": 0.01167401, "INCLINATION": 98.8697, "RA_OF_ASC_NODE": 35.355, "ARG_OF_PERICENTER": 182.5527, "MEAN_ANOMALY": 303.5221, "EPHEMERIS_TYPE": 0, "CLASSIFICATION_TYPE": "U", "NORAD_CAT_ID": 31078, "ELEMENT_SET_NO": 999, "REV_AT_EPOCH": 96725, "BSTAR": 0.00067957769, "MEAN_MOTION_DOT": 1.565e-05, "MEAN_MOTION_DDOT": 0}, "tle": {"line1": "1 31078U 99025BFY 25334.98226943  .00001565  00000+0  67958-3 0  9998", "line2": "2 31078  98.8697  35.3550 0116740 182.5527 303.5221 14.22024043967255"}}, "geometry": {"type": "Point", "coordinates": [-154.73978807812074, -51.664093713981465]}}, {"type": "Feature", "properties": {"norad_id": 31081, "name": "FENGYUN 1C DEB", "group": "fengyun-1c-debris", "lat": -58.18289500527633, "lon": 158.62215558238304, "alt_km": 847.404079125994, "timestamp": "2025-12-02T06:27:53.293836+00:00", "meta": {"OBJECT_NAME": "FENGYUN 1C DEB", "OBJECT_ID": "1999-025BGB", "EPOCH": "2025-12-01T19:56:02.256288", "MEAN_MOTION": 14.06293884, "ECCENTRICITY": 0.0047122, "INCLINATION": 98.7711, "RA_OF_ASC_NODE": 352.6058, "ARG_OF_PERICENTER": 262.2973, "MEAN_ANOMALY": 276.9466, "EPHEMERIS_TYPE": 0, "CLASSIFICATION_TYPE": "U", "NORAD_CAT_ID": 31081, "ELEMENT_SET_NO": 999, "REV_AT_EPOCH": 96307, "BSTAR": -2.5427e-05, "MEAN_MOTION_DOT": -8.5e-07, "MEAN_MOTION_DDOT": 0}, "tle": {"line1": "1 31081U 99025BGB 25335.83058167 -.00000085  00000+0 -25427-4 0  9992", "line2": "2 31081  98.7711 352.6058 0047122 262.2973 276.9466 14.06293884963074"}}, "geometry": {"type": "Point", "coordinates": [158.62215558238304, -58.18289500527633]}}, {"type": "Feature", "properties": {"norad_id": 31083, "name": "FENGYUN 1C DEB", "group": "fengyun-1c-debris", "lat": 0.07034624577768175, "lon": 93.22582846917784, "alt_km": 671.0832539247594, "timestamp": "2025-12-02T06:27:53.293846+00:00", "meta": {"OBJECT_NAME": "FENGYUN 1C DEB", "OBJECT_ID": "1999-025BGD", "EPOCH": "2025-12-01T07:34:46.248384", "MEAN_MOTION": 14.61533873, "ECCENTRICITY": 0.00304497, "INCLINATION": 98.647, "RA_OF_ASC_NODE": 92.2401, "ARG_OF_PERICENTER": 341.461, "MEAN_ANOMALY": 44.3461, "EPHEMERIS_TYPE": 0, "CLASSIFICATION_TYPE": "U", "NORAD_CAT_ID": 31083, "ELEMENT_SET_NO": 999, "REV_AT_EPOCH": 97543, "BSTAR": 0.0033496518, "MEAN_MOTION_DOT": 0.00016718, "MEAN_MOTION_DDOT": 0}, "tle": {"line1": "1 31083U 99025BGD 25335.31581306  .00016718  00000+0  33497-2 0  9995", "line2": "2 31083  98.6470  92.2401 0030449 341.4610  44.3461 14.61533873975439"}}, "geometry": {"type": "Point", "coordinates": [93.22582846917784, 0.07034624577768175]}}, {"type": "Feature", "properties": {"norad_id": 31085, "name": "FENGYUN 1C DEB", "group": "fengyun-1c-debris", "lat": -48.55247437785784, "lon": -13.607138273386703, "alt_km": 860.4285733732158, "timestamp": "2025-12-02T06:27:53.293856+00:00", "meta": {"OBJECT_NAME": "FENGYUN 1C DEB", "OBJECT_ID": "1999-025BGF", "EPOCH": "2025-12-01T12:51:58.320288", "MEAN_MOTION": 14.30299074, "ECCENTRICITY": 0.00877259, "INCLINATION": 98.9848, "RA_OF_ASC_NODE": 175.9567, "ARG_OF_PERICENTER": 50.4377, "MEAN_ANOMALY": 5.3032, "EPHEMERIS_TYPE": 0, "CLASSIFICATION_TYPE": "U", "NORAD_CAT_ID": 31085, "ELEMENT_SET_NO": 999, "REV_AT_EPOCH": 97556, "BSTAR": 0.00012031391, "MEAN_MOTION_DOT": 2.79e-06, "MEAN_MOTION_DDOT": 0}, "tle": {"line1": "1 31085U 99025BGF 25335.53609167  .00000279  00000+0  12031-3 0  9994", "line2": "2 31085  98.9848 175.9567 0087725  50.4377   5.3032 14.30299074975564"}}, "geometry": {"type": "Point", "coordinates": [-13.607138273386703, -48.55247437785784]}}, {"type": "Feature", "properties": {"norad_id": 31087, "name": "FENGYUN 1C DEB", "group": "fengyun-1c-debris", "lat": -39.069342000377894, "lon": 3.5495454521594714, "alt_km": 577.2407106275432, "timestamp": "2025-12-02T06:27:53.293866+00:00", "meta": {"OBJECT_NAME": "FENGYUN 1C DEB", "OBJECT_ID": "1999-025BGH", "EPOCH": "2025-12-01T13:15:15.731424", "MEAN_MOTION": 14.60131159, "ECCENTRICITY": 0.01727426, "INCLINATION": 98.104, "RA_OF_ASC_NODE": 356.2059, "ARG_OF_PERICENTER": 326.1596, "MEAN_ANOMALY": 187.3241, "EPHEMERIS_TYPE": 0, "CLASSIFICATION_TYPE": "U", "NORAD_CAT_ID": 31087, "ELEMENT_SET_NO": 999, "REV_AT_EPOCH": 98606, "BSTAR": 0.00088421007, "MEAN_MOTION_DOT": 5.196e-05, "MEAN_MOTION_DDOT": 0}, "tle": {"line1": "1 31087U 99025BGH 25335.55226541  .00005196  00000+0  88421-3 0  9998", "line2": "2 31087  98.1040 356.2059 0172742 326.1596 187.3241 14.60131159986064"}}, "geometry": {"type": "Point", "coordinates": [3.5495454521594714, -39.069342000377894]}}, {"type": "Feature", "properties": {"norad_id": 31088, "name": "FENGYUN 1C DEB", "group": "fengyun-1c-debris", "lat": -27.243852050383843, "lon": 40.53427418465901, "alt_km": 812.5200426584879, "timestamp": "2025-12-02T06:27:53.293876+00:00", "meta": {"OBJECT_NAME": "FENGYUN 1C DEB", "OBJECT_ID": "1999-025BGJ", "EPOCH": "2025-11-30T14:59:17.128320", "MEAN_MOTION": 14.28545488, "ECCENTRICITY": 0.0029468, "INCLINATION": 99.4131, "RA_OF_ASC_NODE": 33.8614, "ARG_OF_PERICENTER": 96.4088, "MEAN_ANOMALY": 61.8657, "EPHEMERIS_TYPE": 0, "CLASSIFICATION_TYPE": "U", "NORAD_CAT_ID": 31088, "ELEMENT_SET_NO": 999, "REV_AT_EPOCH": 96376, "BSTAR": 0.0016924273, "MEAN_MOTION_DOT": 4.215e-05, "MEAN_MOTION_DDOT": 0}, "tle": {"line1": "1 31088U 99025BGJ 25334.62450380  .00004215  00000+0  16924-2 0  9995", "line2": "2 31088  99.4131  33.8614 0029468  96.4088  61.8657 14.28545488963761"}}, "geometry": {"type": "Point", "coordinates": [40.53427418465901, -27.243852050383843]}}, {"type": "Feature", "properties": {"norad_id": 31089, "name": "FENGYUN 1C DEB", "group": "fengyun-1c-debris", "lat": 35.16363572055463, "lon": -54.88659797920745, "alt_km": 944.3194251407776, "timestamp": "2025-12-02T06:27:53.293886+00:00", "meta": {"OBJECT_NAME": "FENGYUN 1C DEB", "OBJECT_ID": "1999-025BGK", "EPOCH": "2025-12-01T09:07:49.380096", "MEAN_MOTION": 13.88281458, "ECCENTRICITY": 0.02056627, "INCLINATION": 98.9488, "RA_OF_ASC_NODE": 117.8872, "ARG_OF_PERICENTER": 242.4516, "MEAN_ANOMALY": 143.828, "EPHEMERIS_TYPE": 0, "CLASSIFICATION_TYPE": "U", "NORAD_CAT_ID": 31089, "ELEMENT_SET_NO": 999, "REV_AT_EPOCH": 67902, "BSTAR": 0.00085311791, "MEAN_MOTION_DOT": 1.165e-05, "MEAN_MOTION_DDOT": 0}, "tle": {"line1": "1 31089U 99025BGK 25335.38043264  .00001165  00000+0  85312-3 0  9998", "line2": "2 31089  98.9488 117.8872 0205662 242.4516 143.8280 13.88281458679026"}}, "geometry": {"type": "Point", "coordinates": [-54.88659797920745, 35.16363572055463]}}, {"type": "Feature", "properties": {"norad_id": 31090, "name": "FENGYUN 1C DEB", "group": "fengyun-1c-debris", "lat": -14.374003461253755, "lon": -104.2404078224789, "alt_km": 439.5678271492907, "timestamp": "2025-12-02T06:27:53.293896+00:00", "meta": {"OBJECT_NAME": "FENGYUN 1C DEB", "OBJECT_ID": "1999-025BGL", "EPOCH": "2025-12-01T06:05:56.419872", "MEAN_MOTION": 15.31414433, "ECCENTRICITY": 0.0058582, "INCLINATION": 98.9853, "RA_OF_ASC_NODE": 76.8546, "ARG_OF_PERICENTER": 172.6607, "MEAN_ANOMALY": 187.55, "EPHEMERIS_TYPE": 0, "CLASSIFICATION_TYPE": "U", "NORAD_CAT_ID": 31090, "ELEMENT_SET_NO": 999, "REV_AT_EPOCH": 662, "BSTAR": 0.0023374, "MEAN_MOTION_DOT": 0.00075347, "MEAN_MOTION_DDOT": 0}, "tle": {"line1": "1 31090U 99025BGL 25335.25412523  .00075347  00000+0  23374-2 0  9996", "line2": "2 31090  98.9853  76.8546 0058582 172.6607 187.5500 15.31414433  6629"}}, "geometry": {"type": "Point", "coordinates": [-104.2404078224789, -14.374003461253755]}}]}